*******************************************************************************
Ephemeris / WWW_USER Mon Mar 24 06:46:07 2025 Pasadena, USA      / Horizons    
*******************************************************************************
Target body name: Hale-Bopp (C/1995 O1)           {source: JPL#226}
Center body name: Earth (399)                     {source: DE441}
Center-site name: Gemini South Obs., Cerro Pachon
*******************************************************************************
Start time      : A.D. 2018-Sep-20 22:46:00.0000 UT      
Stop  time      : A.D. 2018-Sep-21 10:25:00.0000 UT      
Step-size       : 1 minutes
*******************************************************************************
Target pole/equ : undefined
Target radii    : 30. km                                                       
Center geodetic : 289.2634, -30.2406227, 2.71233  {E-lon(deg),Lat(deg),Alt(km)}
Center cylindric: 289.2634,5517.21435,-3194.81213 {E-lon(deg),Dxy(km),Dz(km)}
Center pole/equ : ITRF93                          {East-longitude positive}
Center radii    : 6378.137, 6378.137, 6356.752 km {Equator_a, b, pole_c}       
Target primary  : Sun
Vis. interferer : MOON (R_eq= 1737.400) km        {source: DE441}
Rel. light bend : Sun                             {source: DE441}
Rel. lght bnd GM: 1.3271E+11 km^3/s^2                                          
Small-body perts: Yes                             {source: SB441-N16}
Atmos refraction: NO (AIRLESS)
RA format       : HMS
Time format     : CAL 
Calendar mode   : Mixed Julian/Gregorian
RTS-only print  : NO       
EOP file        : eop.250321.p250617                                           
EOP coverage    : DATA-BASED 1962-JAN-20 TO 2025-MAR-21. PREDICTS-> 2025-JUN-16
Units conversion: 1 au= 149597870.700 km, c= 299792.458 km/s, 1 day= 86400.0 s 
Table cut-offs 1: Elevation (-90.0deg=NO ),Airmass (>38.000=NO), Daylight (YES)
Table cut-offs 2: Solar elongation (  0.0,180.0=NO ),Local Hour Angle( 0.0=NO )
Table cut-offs 3: RA/DEC angular rate (     0.0=NO )                           
*******************************************************************************
Initial IAU76/J2000 heliocentric ecliptic osculating elements (au, days, deg.):
  EPOCH=  2459837.5 ! 2022-Sep-15.0000000 (TDB)    RMSW= n.a.                  
   EC= .9949810027633206   QR= .890537663547794    TP= 2450537.1349071441      
   OM= 282.7334213961641   W= 130.4146670659176    IN= 89.28759424740302       
  Equivalent ICRF heliocentric cartesian coordinates (au, au/d):
   X= 3.907631452214869E+00  Y=-1.373895334060347E+00  Z=-4.624358508575312E+01
  VX= 3.778244409519935E-04 VY=-5.803173067116371E-04 VZ=-3.255716412104052E-03
Comet physical (GM= km^3/s^2; RAD= km):                                        
   GM= n.a.                RAD= 30.                                            
   M1=  4.8      M2=  n.a.     k1=  4.     k2= n.a.     PHCOF= n.a.            
*******************************************************************************
 Date__(UT)__HR:MN     R.A._________(ICRF)_________DEC
******************************************************
$$SOE
 2018-Sep-21 09:06     23 12 40.670581 -86 41 58.74561
 2018-Sep-21 09:07     23 12 40.606529 -86 41 58.73495
 2018-Sep-21 09:08     23 12 40.542481 -86 41 58.72429
 2018-Sep-21 09:09     23 12 40.478438 -86 41 58.71362
 2018-Sep-21 09:10     23 12 40.414398 -86 41 58.70295
 2018-Sep-21 09:11     23 12 40.350363 -86 41 58.69228
 2018-Sep-21 09:12     23 12 40.286333 -86 41 58.68161
 2018-Sep-21 09:13     23 12 40.222306 -86 41 58.67093
 2018-Sep-21 09:14 A   23 12 40.158284 -86 41 58.66026
 2018-Sep-21 09:15 A   23 12 40.094266 -86 41 58.64958
 2018-Sep-21 09:16 A   23 12 40.030252 -86 41 58.63890
 2018-Sep-21 09:17 A   23 12 39.966243 -86 41 58.62822
 2018-Sep-21 09:18 A   23 12 39.902238 -86 41 58.61754
 2018-Sep-21 09:19 A   23 12 39.838238 -86 41 58.60686
 2018-Sep-21 09:20 A   23 12 39.774241 -86 41 58.59617
 2018-Sep-21 09:21 A   23 12 39.710249 -86 41 58.58549
 2018-Sep-21 09:22 A   23 12 39.646261 -86 41 58.57480
 2018-Sep-21 09:23 A   23 12 39.582278 -86 41 58.56411
 2018-Sep-21 09:24 A   23 12 39.518299 -86 41 58.55342
 2018-Sep-21 09:25 A   23 12 39.454324 -86 41 58.54273
 2018-Sep-21 09:26 A   23 12 39.390353 -86 41 58.53203
 2018-Sep-21 09:27 A   23 12 39.326387 -86 41 58.52134
 2018-Sep-21 09:28 A   23 12 39.262425 -86 41 58.51064
 2018-Sep-21 09:29 A   23 12 39.198468 -86 41 58.49995
 2018-Sep-21 09:30 A   23 12 39.134515 -86 41 58.48925
 2018-Sep-21 09:31 A   23 12 39.070566 -86 41 58.47855
 2018-Sep-21 09:32 A   23 12 39.006621 -86 41 58.46784
 2018-Sep-21 09:33 A   23 12 38.942681 -86 41 58.45714
 2018-Sep-21 09:34 A   23 12 38.878745 -86 41 58.44644
 2018-Sep-21 09:35 A   23 12 38.814814 -86 41 58.43573
 2018-Sep-21 09:36 A   23 12 38.750886 -86 41 58.42503
 2018-Sep-21 09:37 A   23 12 38.686964 -86 41 58.41432
 2018-Sep-21 09:38 A   23 12 38.623045 -86 41 58.40361
 2018-Sep-21 09:39 A   23 12 38.559131 -86 41 58.39290
 2018-Sep-21 09:40 A   23 12 38.495221 -86 41 58.38219
 2018-Sep-21 09:41 A   23 12 38.431316 -86 41 58.37147
 2018-Sep-21 09:42 N   23 12 38.367414 -86 41 58.36076
 2018-Sep-21 09:43 N   23 12 38.303518 -86 41 58.35005
 2018-Sep-21 09:44 N   23 12 38.239625 -86 41 58.33933
 2018-Sep-21 09:45 N   23 12 38.175737 -86 41 58.32861
 2018-Sep-21 09:46 N   23 12 38.111853 -86 41 58.31789
 2018-Sep-21 09:47 N   23 12 38.047974 -86 41 58.30717
 2018-Sep-21 09:48 N   23 12 37.984099 -86 41 58.29645
 2018-Sep-21 09:49 N   23 12 37.920228 -86 41 58.28573
 2018-Sep-21 09:50 N   23 12 37.856362 -86 41 58.27501
 2018-Sep-21 09:51 N   23 12 37.792500 -86 41 58.26429
 2018-Sep-21 09:52 N   23 12 37.728642 -86 41 58.25356
 2018-Sep-21 09:53 N   23 12 37.664789 -86 41 58.24284
 2018-Sep-21 09:54 N   23 12 37.600940 -86 41 58.23211
 2018-Sep-21 09:55 N   23 12 37.537096 -86 41 58.22138
 2018-Sep-21 09:56 N   23 12 37.473255 -86 41 58.21065
 2018-Sep-21 09:57 N   23 12 37.409420 -86 41 58.19992
 2018-Sep-21 09:58 N   23 12 37.345588 -86 41 58.18919
 2018-Sep-21 09:59 N   23 12 37.281761 -86 41 58.17846
 2018-Sep-21 10:00 N   23 12 37.217938 -86 41 58.16773
 2018-Sep-21 10:01 N   23 12 37.154120 -86 41 58.15700
 2018-Sep-21 10:02 N   23 12 37.090306 -86 41 58.14626
 2018-Sep-21 10:03 N   23 12 37.026496 -86 41 58.13553
 2018-Sep-21 10:04 N   23 12 36.962691 -86 41 58.12479
 2018-Sep-21 10:05 N   23 12 36.898890 -86 41 58.11406
 2018-Sep-21 10:06 N   23 12 36.835093 -86 41 58.10332
 2018-Sep-21 10:07 N   23 12 36.771301 -86 41 58.09258
 2018-Sep-21 10:08 N   23 12 36.707513 -86 41 58.08184
 2018-Sep-21 10:09 N   23 12 36.643729 -86 41 58.07110
 2018-Sep-21 10:10 C   23 12 36.579950 -86 41 58.06036
 2018-Sep-21 10:11 C   23 12 36.516175 -86 41 58.04962
 2018-Sep-21 10:12 C   23 12 36.452405 -86 41 58.03888
 2018-Sep-21 10:13 C   23 12 36.388638 -86 41 58.02814
 2018-Sep-21 10:14 C   23 12 36.324876 -86 41 58.01739
 2018-Sep-21 10:15 C   23 12 36.261119 -86 41 58.00665
 2018-Sep-21 10:16 C   23 12 36.197366 -86 41 57.99591
 2018-Sep-21 10:17 C   23 12 36.133617 -86 41 57.98516
 2018-Sep-21 10:18 C   23 12 36.069872 -86 41 57.97442
 2018-Sep-21 10:19 C   23 12 36.006132 -86 41 57.96367
 2018-Sep-21 10:20 C   23 12 35.942396 -86 41 57.95292
 2018-Sep-21 10:21 C   23 12 35.878665 -86 41 57.94218
 2018-Sep-21 10:22 C   23 12 35.814938 -86 41 57.93143
 2018-Sep-21 10:23 C   23 12 35.751215 -86 41 57.92068
 2018-Sep-21 10:24 C   23 12 35.687496 -86 41 57.90993
 2018-Sep-21 10:25 C   23 12 35.623782 -86 41 57.89918
